[{"OBJECT_NAME":"SAUDISAT 1C (SO-50)","OBJECT_ID":"2002-058C","EPOCH":"2026-03-06T05:53:04.475616","MEAN_MOTION":14.82766526,"ECCENTRICITY":0.00751853,"INCLINATION":64.5519,"RA_OF_ASC_NODE":87.4255,"ARG_OF_PERICENTER":281.3249,"MEAN_ANOMALY":77.9416,"EPHEMERIS_TYPE":0,"CLASSIFICATION_TYPE":"U","NORAD_CAT_ID":27607,"ELEMENT_SET_NO":999,"REV_AT_EPOCH":24919,"BSTAR":0.00029613132,"MEAN_MOTION_DOT":2.366e-5,"MEAN_MOTION_DDOT":0},{"OBJECT_NAME":"SAUDISAT 2","OBJECT_ID":"2004-025F","EPOCH":"2026-03-06T06:25:04.541952","MEAN_MOTION":14.56612951,"ECCENTRICITY":0.00235652,"INCLINATION":98.5496,"RA_OF_ASC_NODE":62.6036,"ARG_OF_PERICENTER":252.1741,"MEAN_ANOMALY":107.6885,"EPHEMERIS_TYPE":0,"CLASSIFICATION_TYPE":"U","NORAD_CAT_ID":28371,"ELEMENT_SET_NO":999,"REV_AT_EPOCH":15076,"BSTAR":0.00012505896,"MEAN_MOTION_DOT":5.1e-6,"MEAN_MOTION_DDOT":0},{"OBJECT_NAME":"SAUDISAT 3","OBJECT_ID":"2007-012B","EPOCH":"2026-03-06T07:13:33.645504","MEAN_MOTION":14.71350131,"ECCENTRICITY":0.00143359,"INCLINATION":98.1346,"RA_OF_ASC_NODE":15.707,"ARG_OF_PERICENTER":189.6683,"MEAN_ANOMALY":170.425,"EPHEMERIS_TYPE":0,"CLASSIFICATION_TYPE":"U","NORAD_CAT_ID":31118,"ELEMENT_SET_NO":999,"REV_AT_EPOCH":1261,"BSTAR":9.8176571e-5,"MEAN_MOTION_DOT":5.57e-6,"MEAN_MOTION_DDOT":0},{"OBJECT_NAME":"PISAT","OBJECT_ID":"2016-059B","EPOCH":"2026-03-06T00:14:41.584128","MEAN_MOTION":14.68761988,"ECCENTRICITY":0.00292486,"INCLINATION":97.819,"RA_OF_ASC_NODE":69.9116,"ARG_OF_PERICENTER":172.3554,"MEAN_ANOMALY":187.8104,"EPHEMERIS_TYPE":0,"CLASSIFICATION_TYPE":"U","NORAD_CAT_ID":41784,"ELEMENT_SET_NO":999,"REV_AT_EPOCH":50459,"BSTAR":0.00023709805,"MEAN_MOTION_DOT":1.344e-5,"MEAN_MOTION_DDOT":0},{"OBJECT_NAME":"FLYING LAPTOP","OBJECT_ID":"2017-042G","EPOCH":"2026-03-06T07:26:55.525632","MEAN_MOTION":15.00488681,"ECCENTRICITY":0.00188324,"INCLINATION":97.4264,"RA_OF_ASC_NODE":225.1346,"ARG_OF_PERICENTER":106.3478,"MEAN_ANOMALY":253.9819,"EPHEMERIS_TYPE":0,"CLASSIFICATION_TYPE":"U","NORAD_CAT_ID":42831,"ELEMENT_SET_NO":999,"REV_AT_EPOCH":47102,"BSTAR":0.00027262487,"MEAN_MOTION_DOT":3.389e-5,"MEAN_MOTION_DDOT":0},{"OBJECT_NAME":"SALSAT","OBJECT_ID":"2020-068K","EPOCH":"2026-03-05T22:34:33.397248","MEAN_MOTION":15.28092628,"ECCENTRICITY":0.00085381,"INCLINATION":97.8854,"RA_OF_ASC_NODE":61.8531,"ARG_OF_PERICENTER":312.583,"MEAN_ANOMALY":47.4688,"EPHEMERIS_TYPE":0,"CLASSIFICATION_TYPE":"U","NORAD_CAT_ID":46495,"ELEMENT_SET_NO":999,"REV_AT_EPOCH":29958,"BSTAR":0.00040601098,"MEAN_MOTION_DOT":0.00011056,"MEAN_MOTION_DDOT":0}]
